{
  "locations": [
    {
      "Id": 1,
      "Name": "Tech Elevator Home Office",
      "Address": "7101 Euclid Ave.",
      "City": "Cleveland",
      "State": "OH",
      "Zip": "44103",
      "IsValid": true
    },
    {
      "Id": 2,
      "name": "Tech Elevator Columbus",
      "address": "1275 Kinnear Rd #121",
      "city": "Columbus",
      "state": "OH",
      "zip": "43212"
    },
    {
      "Id": 3,
      "name": "Tech Elevator Cincinnati",
      "address": "1776 Mentor Ave Suite 355",
      "city": "Cincinnati",
      "state": "OH",
      "zip": "45212"
    },
    {
      "Id": 4,
      "name": "Tech Elevator Pittsburgh",
      "address": "901 Pennsylvania Ave #3",
      "city": "Pittsburgh",
      "state": "PA",
      "zip": "15233"
    },
    {
      "Id": 5,
      "name": "Tech Elevator Detroit",
      "address": "440 Burroughs St #316",
      "city": "Detroit",
      "state": "MI",
      "zip": "48202"
    },
    {
      "Id": 6,
      "name": "Tech Elevator Philadelphia",
      "address": "30 S 17th St",
      "city": "Philadelphia",
      "state": "PA",
      "zip": "19103"
    },
    {
      "Id": 9,
      "name": "Tech Elevator Los Angeles",
      "address": "127 Hollywood Blvd.",
      "city": "Los Angeles",
      "state": "CA",
      "zip": "90045"
    },
    {
      "Id": 10,
      "Name": "Tech Elevator Memphis",
      "Address": "123 Bell St",
      "City": "Memphis",
      "State": "TN",
      "Zip": "11112",
      "IsValid": true
    },
    {
      "Id": 11,
      "Name": "Tech Elevator Memphis",
      "Address": "125 Bell Street",
      "City": "Menphis",
      "State": "TN",
      "Zip": "11112",
      "IsValid": true
    }
  ]
}